              TDR Cartesian                         TDR Cartesian  
    -----------------------------------       --------------------------------
     X    =        9115500.39                 X    =         2778404.52
     Y    =      -10395580.89  feet           Y    =        -3168573.06  meter
     Z    =      -17455720.27                 Z    =        -5320503.54
     XDOT =      18033.933499                 XDOT =        5496.742930
     YDOT =      16009.100277  feet/sec       YDOT =        4879.573765  meter/sec
     ZDOT =       -108.826879                 ZDOT =         -33.170433
  
  
    The mean element set is posted at the UTC for which position is
    just north of the next ascending node relative to the above
    vector time
 
 
    TWO LINE MEAN ELEMENT SET
  
    ISS
    1 25544U 98067A   16091.61024665  .00016717  00000-0  10270-3 0  9071
    2 25544  51.6397  84.9573 0002493  11.2875 348.8333 15.54300291 32918
  
  
    Satellite: ISS
    Catalog Number: 25544
    Epoch time:      16091.61024665   =   yrday.fracday
    Element set:     907
    Inclination:       51.6397  deg
    RA of node:        84.9573  deg
    Eccentricity:     .0002493     
    Arg of perigee:    11.2875  deg
    Mean anomaly:     348.8333  deg
    Mean motion:   15.54300291  rev/day
    Decay rate:    1.67170E-04  rev/day^2
    Epoch rev:            3291
    Checksum:              313
 
 
    Coasting Arc #9 (Orbit 3292)
    ---------------------------------------
 
    Vector Time (GMT): 2016/091/16:23:58.000
    Vector Time (MET): N/A
    Weight (LBS)     : 901911.1
 
              M50 Cartesian                         M50 Keplerian  
    -----------------------------------       --------------------------------
     X    =       -2656074.33                 A    =         6781931.21  meter
     Y    =        4749932.33  meter          E    =           .0011106
     Z    =        4037232.63                 I    =           52.00494
     XDOT =      -3698.118671                 Wp   =           88.69388
     YDOT =      -5436.889954  meter/sec      RA   =           83.79815  deg
     ZDOT =       3954.595623                 TA   =          320.42189
                                              MA   =          320.50292
                                              Ha   =            221.171  n.mi
                                              Hp   =            214.152
 
              M50 Cartesian                         J2K Cartesian  
    -----------------------------------       --------------------------------
     X    =       -8714154.62                 X    =        -2728603.01
     Y    =       15583767.48  feet           Y    =         4719825.15  meter
     Z    =       13245513.88                 Z    =         4024153.51
     XDOT =     -12132.935272                 XDOT =       -3656.256911
     YDOT =     -17837.565465  feet/sec       YDOT =       -5478.010378  meter/sec
     ZDOT =      12974.395087                 ZDOT =        3936.733204
 
              TDR Cartesian                         TDR Cartesian  
    -----------------------------------       --------------------------------
     X    =       12692146.45                 X    =         3868566.24
     Y    =       12618436.18  feet           Y    =         3846099.35  meter
     Z    =       13187813.48                 Z    =         4019645.55
     XDOT =     -19517.993198                 XDOT =       -5949.084327
     YDOT =       6120.948453  feet/sec       YDOT =        1865.665088  meter/sec
     ZDOT =      12897.722770                 ZDOT =        3931.225900
  
  
    The mean element set is posted at the UTC for which position is
    just north of the next ascending node relative to the above
    vector time
 
 
    TWO LINE MEAN ELEMENT SET
  
    ISS
    1 25544U 98067A   16091.73883597  .00016717  00000-0  10270-3 0  9082
    2 25544  51.6410  84.3171 0002467  12.2758 347.8454 15.54312984 32931
  
  
    Satellite: ISS
    Catalog Number: 25544
    Epoch time:      16091.73883597   =   yrday.fracday
    Element set:     908
    Inclination:       51.6410  deg
    RA of node:        84.3171  deg
    Eccentricity:     .0002467     
    Arg of perigee:    12.2758  deg
    Mean anomaly:     347.8454  deg
    Mean motion:   15.54312984  rev/day
    Decay rate:    1.67170E-04  rev/day^2
    Epoch rev:            3293
    Checksum:              327
 
 
    Coasting Arc #10 (Orbit 3307)
    ---------------------------------------
 
    Vector Time (GMT): 2016/092/16:23:58.000
    Vector Time (MET): N/A
    Weight (LBS)     : 901911.1
 
              M50 Cartesian                         M50 Keplerian  
    -----------------------------------       --------------------------------
     X    =        3328220.37                 A    =         6778356.94  meter
     Y    =       -3205220.12  meter          E    =           .0013837
     Z    =       -4972184.70                 I    =           51.98969
     XDOT =       3082.766161                 Wp   =           64.75992
     YDOT =       6648.629547  meter/sec      RA   =           78.82893  deg
     ZDOT =      -2221.485104                 TA   =          183.63137
                                              MA   =          183.64142
                                              Ha   =            221.093  n.mi
                                              Hp   =            214.159
 
              M50 Cartesian                         J2K Cartesian  
    -----------------------------------       --------------------------------
     X    =       10919358.17                 X    =         3387967.29
     Y    =      -10515814.04  feet           Y    =        -3167668.12  meter
     Z    =      -16312941.94                 Z    =        -4955871.66
     XDOT =      10114.062209                 XDOT =        3018.981423
     YDOT =      21813.089066  feet/sec       YDOT =        6682.746249  meter/sec
     ZDOT =      -7288.336955                 ZDOT =       -2206.665329
 
              TDR Cartesian                         TDR Cartesian  
    -----------------------------------       --------------------------------
     X    =       -7445565.37                 X    =        -2269408.32
     Y    =      -13293064.47  feet           Y    =        -4051726.05  meter
     Z    =      -16241453.00                 Z    =        -4950394.88
     XDOT =      22684.592652                 XDOT =        6914.263840
     YDOT =      -3874.512192  feet/sec       YDOT =       -1180.951316  meter/sec
     ZDOT =      -7225.115530                 ZDOT =       -2202.215214
  
  
    The mean element set is posted at the UTC for which position is
    just north of the next ascending node relative to the above
    vector time
 
 
    TWO LINE MEAN ELEMENT SET
  
    ISS
    1 25544U 98067A   16092.70325044  .00016717  00000-0  10270-3 0  9099
    2 25544  51.6419  79.5083 0002537  15.1055 345.0173 15.54337254 33080
  
  
    Satellite: ISS
    Catalog Number: 25544
    Epoch time:      16092.70325044   =   yrday.fracday
    Element set:     909
    Inclination:       51.6419  deg
    RA of node:        79.5083  deg
    Eccentricity:     .0002537     
    Arg of perigee:    15.1055  deg
    Mean anomaly:     345.0173  deg
    Mean motion:   15.54337254  rev/day
    Decay rate:    1.67170E-04  rev/day^2
    Epoch rev:            3308
    Checksum:              293
 
 
    Coasting Arc #11 (Orbit 3323)
    ---------------------------------------
 
    Vector Time (GMT): 2016/093/16:23:58.000
    Vector Time (MET): N/A
    Weight (LBS)     : 901911.1
 
              M50 Cartesian                         M50 Keplerian  
    -----------------------------------       --------------------------------
     X    =       -3928334.35                 A    =         6776654.37  meter
     Y    =        1424287.16  meter          E    =           .0003654
     Z    =        5332312.75                 I    =           51.97725
     XDOT =      -2317.353237                 Wp   =           57.71999
     YDOT =      -7309.298653  meter/sec      RA   =           73.85207  deg
     ZDOT =        246.924867                 TA   =           29.94886
                                              MA   =           29.92796
                                              Ha   =            221.182  n.mi
                                              Hp   =            214.000
 
              M50 Cartesian                         J2K Cartesian  
    -----------------------------------       --------------------------------
     X    =      -12888236.05                 X    =        -3969871.14
     Y    =        4672858.15  feet           Y    =         1380126.20  meter
     Z    =       17494464.41                 Z    =         5313128.90
     XDOT =      -7602.864952                 XDOT =       -2236.646062
     YDOT =     -23980.638626  feet/sec       YDOT =       -7334.761553  meter/sec
     ZDOT =        810.120954                 ZDOT =         235.864524
 
              TDR Cartesian                         TDR Cartesian  
    -----------------------------------       --------------------------------
     X    =        1531169.74                 X    =          466700.54
     Y    =       13730170.86  feet           Y    =         4184956.08  meter
     Z    =       17410814.00                 Z    =         5306816.11
     XDOT =     -24090.043378                 XDOT =       -7342.645222
     YDOT =       1725.913153  feet/sec       YDOT =         526.058329  meter/sec
     ZDOT =        763.369856                 ZDOT =         232.675132
  
  
    The mean element set is posted at the UTC for which position is
    just north of the next ascending node relative to the above
    vector time
 
 
    TWO LINE MEAN ELEMENT SET
  
    ISS
    1 25544U 98067A   16093.73194929  .00016717  00000-0  10270-3 0  9101
    2 25544  51.6420  74.3791 0002499  15.3607 344.7621 15.54371440 33240
  
